#dP2023  9 25 12  0  0.00000000      96 __u+U ITR00 EXT  IAC
## 2281 129600.00000000   900.00000000 60212 0.5000000000000
+  120   C06C07C08C09C10C11C12C13C14C16C19C20C21C22C23C24C25
+        C26C27C28C29C30C32C33C34C35C36C37C38C39C40C41C42C43
+        C44C45C46E02E03E04E05E07E08E09E10E11E12E13E14E15E18
+        E19E21E24E25E26E27E30E31E33E34E36G01G02G03G04G05G06
+        G07G08G09G10G11G12G13G14G15G16G17G18G19G20G21G22G23
+        G24G25G26G27G28G29G30G31G32J02J03J04R01R02R03R04R05
+        R07R08R09R11R12R13R14R15R16R17R18R19R20R21R22R24R25
+        R26  0  0  0  0  0  0  0  0  0  0  0  0  0  0  0  0
++        10  8  8  9  8  8  8 10 11 11  9  6  8  9  8  9  7
++         7  8 10  6  6  8  8  8  8  8  8 10 10 10 10  9  9
++         7  7  7  7  8  6  7  6  7  7  7  8  8  7  8  7  7
++         7  7  7  6  7  8  7  7  8  7  6  7  7  6  7  7  7
++         7  7  7  8  8  7  6  7  6  7  8  8  8  7  7  6  7
++         8  7  7  7  9  7  7  8  7  9  8 10  8  7  8  9  8
++         8  7  8  8  9  8  8  9  8  9  8  9  9  8  7  8  8
++         9  0  0  0  0  0  0  0  0  0  0  0  0  0  0  0  0
%c M  cc GPS ccc cccc cccc cccc cccc ccccc ccccc ccccc ccccc
%c cc cc ccc ccc cccc cccc cccc cccc ccccc ccccc ccccc ccccc
%f  0.0000000  0.000000000  0.00000000000  0.000000000000000
%f  0.0000000  0.000000000  0.00000000000  0.000000000000000
%i    0    0    0    0      0      0      0      0         0
%i    0    0    0    0      0      0      0      0         0
/* IAC                                ULTRA-RAPID PREDICTION
/* S/V CLOCKS ARE ALIGNED TO GNSS TIME                      
/* G:C1WC2W R:C1PC2P E:C1XC5X C:C2IC6I J:C1CC2S             
/* PCV:IGS20_2280 OL/AL:FES2004  NONE     YN ORB:CoN CLK:CoN
*  2023 09 26 11  0  0.00000000
PC06 -10141.772679  23648.748182  33388.194635     31.068853
PC07 -14811.439630  39469.900090  -3058.772376    -64.260769
PC08    690.897609  31694.572577 -27696.380135    327.057005
PC09  -1925.882142  24568.617719  34635.791788    118.041302
PC10  -8872.213252  40322.775292  -9542.175814   -191.097004
PC11  25293.153341  -9752.155925   6633.841947    172.390587
PC12  25292.842139   2233.612873 -11515.405250    922.213429
PC13   5750.469151  34984.000804 -22452.505183    358.085691
PC14  16111.859950 -16026.983776  16165.441791    475.552723
PC16 -16123.711690  21998.097013  32318.446996    -97.715098
PC19 -12662.714182  23447.555792  -8300.265024   -970.629320
PC20 -16945.463059   8042.975313 -20669.131317    252.968528
PC21  11283.804402  13663.393192  21566.822051   -970.495664
PC22   -916.336643  26225.589967   9512.296440   -291.465147
PC23  -6912.949637 -22635.346705 -14782.656297   -860.794580
PC24  21506.995444   4503.895767 -17195.287593    432.181748
PC25   9242.060932 -13658.667075 -22521.093388    219.610420
PC26  20952.817166  18220.173005  -2599.443532   -183.140688
PC27 -20012.870036  -7994.019412  17710.278274    204.742852
PC28  -2684.931980 -15758.824396  22879.922679    153.782112
PC29 -18415.514231  15415.928079 -14219.396057    179.654515
PC30 -27227.093207   5064.008386   3368.363698     -5.516579
PC32 -11343.418678 -13675.017066 -21511.917375   -528.371659
PC33  12581.165791 -23435.432703   8415.090785   -963.502239
PC34  27189.724752  -5995.131334  -1997.755513    267.879384
PC35   3256.880595  15736.615528 -22823.466756    538.313461
PC36 -10297.981358  12757.824683  22605.878725   -207.910928
PC37 -20225.925897 -19164.074115   1810.016336   -836.897517
PC38  -6683.188055  27351.732747 -31298.961157    107.252451
PC39 -21147.586143  21370.129516  29505.364959     -4.966256
PC40 -21667.355342  36326.494177   -911.721958    -37.902968
PC41   1335.926306 -26434.190207  -8791.817779   -875.970530
PC42  16929.000479  -6348.964118  21284.378867   -537.153318
PC43  19168.932343 -15160.297616  13476.484927     41.386032
PC44  20197.788481   7473.366518 -17770.763216    243.179887
PC45   7399.012030  22688.363978  14446.549795    -29.709909
PC46 -21056.183798  -3475.819508  18002.068140    -87.216234
PE02  15827.496480  17579.135453 -17781.915830     65.663834
PE03  17794.398111   5771.067036  22928.161862    -59.552719
PE04 -24915.326462  11829.204730 -10745.575979   -220.663202
PE05    332.606174  20025.826991  21792.717141     21.902703
PE07  17661.255874 -22519.814543  -7544.248196    -77.643992
PE08  24850.862907 -11516.941173  11205.749486   -152.159963
PE09 -17781.905601  22474.979583   7428.420911   -169.962380
PE10 -20421.376542   6889.765875 -20303.971679   -566.601746
PE11 -10404.116752  13127.954039 -24415.065047   2995.957563
PE12 -26352.316789    241.905428 -13477.157266   -712.661737
PE13  11126.189212 -12708.121432  24309.098456    -19.731034
PE14  22130.508934   -493.013276 -15417.453324    351.350100
PE15  26527.804728     70.065016  13130.028287    -56.305501
PE18 -26157.199306  15395.515763   3602.559583    575.116070
PE19 -15848.653851  -7965.773495 -23695.771164  -1551.511811
PE21  -6764.996186 -28771.394698   1644.521788   -554.844918
PE24  -7221.271582  23391.853844  16615.598938   -342.532044
PE25   6515.552482  28843.325033  -1268.757617     -2.358767
PE26 -11244.324173 -18007.408354  20635.376875    233.670488
PE27   6734.058683 -23823.566311 -16224.467974   -159.497203
PE30  16288.253536  -4396.039255 -24325.195043   -530.994925
PE31 -16126.158461   4885.472552  24347.877273     -6.019428
PE33 -25906.019436 -12940.630580   6175.729141     -0.163735
PE34  26194.010249  12584.009229  -5583.299152    -69.099180
PE36  10549.873998  17867.137023 -21107.969246   -121.535182
PG01  19957.674754  14737.679005 -10283.539580    164.672676
PG02  15455.364161  14942.277725 -15212.020361   -549.413507
PG03  12230.654157  19878.171629  12630.702738   -114.089400
PG04  13085.856139   8651.435031  21455.149538    167.124712
PG05  -5341.660016 -25938.213823    982.509651   -144.185421
PG06  15284.938135  -8442.872609  20107.402653    543.074749
PG07  25691.643973   5426.619744  -4961.073904     56.781869
PG08   4062.529390  16048.212323 -20760.931858   -144.155459
PG09  19564.652940   -545.686611  17894.133850    -49.288296
PG10 -11928.725505  11355.270394 -20576.925661    -54.909682
PG11   1709.021814 -15422.955695  21575.613773   -387.034617
PG12  -9451.324772 -22698.977146   9867.752841   -429.095387
PG13   6314.233290 -18594.381506 -17978.047370    577.036739
PG14  14156.395863  -7658.455120 -21080.408625    196.276340
PG15  -7101.523476 -15374.693548 -20903.031609     81.220345
PG16  -1225.869388  25698.943161   5233.114629   -448.489870
PG17  22621.527117 -13142.655026  -4479.613577    723.856774
PG18 -25188.232388  -3802.724373  -7836.530514   -429.735797
PG19  20348.076069 -16452.217490   3103.099945    376.709449
PG20    885.523441 -23514.182900  12539.296562    409.925258
PG21  13201.632968  15603.576613 -16912.942570    148.118749
PG22  11222.499835 -15492.675128 -18082.648618    114.443688
PG23 -15441.254572  -2644.567073 -21467.630309     73.780185
PG24 -17057.331742 -15228.902868 -14238.374117   -330.007643
PG25 -15511.544571 -10938.957071  18368.650208    469.726973
PG26  -6124.424555  20762.965162  15028.962013    226.557181
PG27  -8405.307459  20510.004803 -14571.618291    -45.675384
PG28 -16947.491148   8280.350333  18677.823858    -15.409154
PG29 -19611.818656   -747.962427  17901.279709   -609.646291
PG30  22423.880682  -2864.727590 -14029.598286   -484.308224
PG31  -7902.672074  13243.965612  21459.456145   -223.888224
PG32 -20554.868146  16569.718916  -1358.789056   -563.841418
PJ02 -27497.611200  25161.929104  24771.642135     -4.635604
PJ03 -32470.484237  16207.067433 -16863.831794     -3.584042
PJ04 -21632.136083  33407.131688  -8843.033365     70.788581
PR01   5434.245914 -22828.757001  -9998.495971     66.463784
PR02  -5444.658750 -11836.484752 -21906.397441    -22.396167
PR03 -13743.900981   5654.252391 -20673.765938     85.943227
PR04 -14244.127079  19517.025883  -8125.646188    204.375967
PR05  -7150.763917  22819.664406   8840.123678    119.647718
PR07  14021.311892  -6541.563711  20330.485957     65.506001
PR08  14155.900689 -19688.457438   8028.026809    -72.671717
PR09  16027.962438  19513.677207  -3874.503319    144.334020
PR11   7729.071815  -7998.585494 -22941.206990   -175.837491
PR12  -6194.101886 -20815.800432 -13362.612120     31.701695
PR13 -15062.924740 -20509.497964   1777.020211    -39.583442
PR14 -15854.654056  -7298.767414  18608.612507     25.314371
PR15  -6984.672779   9250.603520  22745.405823     85.884529
PR16   6171.727784  20636.995202  13704.426584     19.067177
PR17 -25466.782257    505.731651   1805.136351     20.452860
PR18 -19911.406832   7212.025926 -14172.402032    103.835372
PR19  -6149.582759  10120.748522 -22592.524436   -248.639167
PR20  16097.515839   7892.197240 -18149.675661   -100.682162
PR21  25463.311265   -757.240509   -847.330175    -40.933840
PR22  19440.268005  -7218.874724  14884.872893     85.915630
PR24 -16895.401591  -7467.526679  17622.684785    -25.857818
PR25  25422.453524    634.552962  -1794.229175     31.051937
PR26  14097.830875 -19517.719191   8411.465371    -22.654629
EOF
